{"type": "FeatureCollection", "features": [ {"type": "Feature", "properties": {"norad_id": 34014, "name": "COSMOS 2251 DEB", "group": "cosmos-2251-debris", "lat": -67.9449785543732, "lon": -123.80507224217999, "alt_km": 676.4673614504709, "timestamp": "2025-12-12T11:38:31.806038+00:00", "meta": {"OBJECT_NAME": "COSMOS 2251 DEB", "OBJECT_ID": "1993-036GZ", "EPOCH": "2025-12-11T23:16:17.632128", "MEAN_MOTION": 14.73123659, "ECCENTRICITY": 0.0036963, "INCLINATION": 74.017, "RA_OF_ASC_NODE": 282.2272, "ARG_OF_PERICENTER": 62.0466, "MEAN_ANOMALY": 11.2871, "EPHEMERIS_TYPE": 0, "CLASSIFICATION_TYPE": "U", "NORAD_CAT_ID": 34014, "ELEMENT_SET_NO": 999, "REV_AT_EPOCH": 89292, "BSTAR": 0.0015254, "MEAN_MOTION_DOT": 9.915e-05, "MEAN_MOTION_DDOT": 0}, "tle": {"line1": "1 34014U 93036GZ  25345.96964852  .00009915  00000+0  15254-2 0  9993", "line2": "2 34014  74.0170 282.2272 0036963  62.0466  11.2871 14.73123659892920"}}, "geometry": {"type": "Point", "coordinates": [-123.80507224217999, -67.9449785543732]}}, {"type": "Feature", "properties": {"norad_id": 34015, "name": "COSMOS 2251 DEB", "group": "cosmos-2251-debris", "lat": 50.90191012577358, "lon": -179.44570687682787, "alt_km": 701.04325292264, "timestamp": "2025-12-12T11:38:31.806048+00:00", "meta": {"OBJECT_NAME": "COSMOS 2251 DEB", "OBJECT_ID": "1993-036HA", "EPOCH": "2025-12-11T22:46:01.840224", "MEAN_MOTION": 14.60232788, "ECCENTRICITY": 0.0021027, "INCLINATION": 74.0236, "RA_OF_ASC_NODE": 160.9354, "ARG_OF_PERICENTER": 257.9067, "MEAN_ANOMALY": 216.9697, "EPHEMERIS_TYPE": 0, "CLASSIFICATION_TYPE": "U", "NORAD_CAT_ID": 34015, "ELEMENT_SET_NO": 999, "REV_AT_EPOCH": 88519, "BSTAR": 0.0021864, "MEAN_MOTION_DOT": 0.00010565, "MEAN_MOTION_DDOT": 0}, "tle": {"line1": "1 34015U 93036HA  25345.94863241  .00010565  00000+0  21864-2 0  9999", "line2": "2 34015  74.0236 160.9354 0021027 257.9067 216.9697 14.60232788885195"}}, "geometry": {"type": "Point", "coordinates": [-179.44570687682787, 50.90191012577358]}}, {"type": "Feature", "properties": {"norad_id": 34018, "name": "COSMOS 2251 DEB", "group": "cosmos-2251-debris", "lat": -73.8605410628063, "lon": 4.352893692105823, "alt_km": 1117.7262079958964, "timestamp": "2025-12-12T11:38:31.806059+00:00", "meta": {"OBJECT_NAME": "COSMOS 2251 DEB", "OBJECT_ID": "1993-036HD", "EPOCH": "2025-12-11T17:40:54.069888", "MEAN_MOTION": 13.81069983, "ECCENTRICITY": 0.02637883, "INCLINATION": 73.8777, "RA_OF_ASC_NODE": 93.7953, "ARG_OF_PERICENTER": 129.8712, "MEAN_ANOMALY": 19.4498, "EPHEMERIS_TYPE": 0, "CLASSIFICATION_TYPE": "U", "NORAD_CAT_ID": 34018, "ELEMENT_SET_NO": 999, "REV_AT_EPOCH": 84643, "BSTAR": 0.00079552946, "MEAN_MOTION_DOT": 1.073e-05, "MEAN_MOTION_DDOT": 0}, "tle": {"line1": "1 34018U 93036HD  25345.73673692  .00001073  00000+0  79553-3 0  9991", "line2": "2 34018  73.8777  93.7953 0263788 129.8712  19.4498 13.81069983846435"}}, "geometry": {"type": "Point", "coordinates": [4.352893692105823, -73.8605410628063]}}, {"type": "Feature", "properties": {"norad_id": 34019, "name": "COSMOS 2251 DEB", "group": "cosmos-2251-debris", "lat": -13.586111813523333, "lon": 47.22085411632453, "alt_km": 800.5048879295491, "timestamp": "2025-12-12T11:38:31.806069+00:00", "meta": {"OBJECT_NAME": "COSMOS 2251 DEB", "OBJECT_ID": "1993-036HE", "EPOCH": "2025-12-11T05:49:55.803072", "MEAN_MOTION": 14.33925838, "ECCENTRICITY": 0.00627125, "INCLINATION": 73.9545, "RA_OF_ASC_NODE": 53.4921, "ARG_OF_PERICENTER": 234.9566, "MEAN_ANOMALY": 181.0856, "EPHEMERIS_TYPE": 0, "CLASSIFICATION_TYPE": "U", "NORAD_CAT_ID": 34019, "ELEMENT_SET_NO": 999, "REV_AT_EPOCH": 87499, "BSTAR": 0.0013912453, "MEAN_MOTION_DOT": 3.94e-05, "MEAN_MOTION_DDOT": 0}, "tle": {"line1": "1 34019U 93036HE  25345.24300698  .00003940  00000+0  13912-2 0  9992", "line2": "2 34019  73.9545  53.4921 0062712 234.9566 181.0856 14.33925838874991"}}, "geometry": {"type": "Point", "coordinates": [47.22085411632453, -13.586111813523333]}}, {"type": "Feature", "properties": {"norad_id": 34021, "name": "COSMOS 2251 DEB", "group": "cosmos-2251-debris", "lat": 64.5290675094352, "lon": 167.24329828032964, "alt_km": 732.7090876548682, "timestamp": "2025-12-12T11:38:31.806079+00:00", "meta": {"OBJECT_NAME": "COSMOS 2251 DEB", "OBJECT_ID": "1993-036HG", "EPOCH": "2025-12-11T21:07:41.922912", "MEAN_MOTION": 14.49943038, "ECCENTRICITY": 0.0020922, "INCLINATION": 74.0359, "RA_OF_ASC_NODE": 131.4418, "ARG_OF_PERICENTER": 275.5829, "MEAN_ANOMALY": 238.8911, "EPHEMERIS_TYPE": 0, "CLASSIFICATION_TYPE": "U", "NORAD_CAT_ID": 34021, "ELEMENT_SET_NO": 999, "REV_AT_EPOCH": 88617, "BSTAR": 0.00081664, "MEAN_MOTION_DOT": 3.141e-05, "MEAN_MOTION_DDOT": 0}, "tle": {"line1": "1 34021U 93036HG  25345.88034633  .00003141  00000+0  81664-3 0  9991", "line2": "2 34021  74.0359 131.4418 0020922 275.5829 238.8911 14.49943038886172"}}, "geometry": {"type": "Point", "coordinates": [167.24329828032964, 64.5290675094352]}}, {"type": "Feature", "properties": {"norad_id": 34022, "name": "COSMOS 2251 DEB", "group": "cosmos-2251-debris", "lat": -68.85676035379745, "lon": 138.9348174795143, "alt_km": 766.0827338211566, "timestamp": "2025-12-12T11:38:31.806089+00:00", "meta": {"OBJECT_NAME": "COSMOS 2251 DEB", "OBJECT_ID": "1993-036HH", "EPOCH": "2025-12-11T21:26:08.839104", "MEAN_MOTION": 14.389616, "ECCENTRICITY": 0.0022689, "INCLINATION": 74.0542, "RA_OF_ASC_NODE": 272.3546, "ARG_OF_PERICENTER": 337.465, "MEAN_ANOMALY": 93.5745, "EPHEMERIS_TYPE": 0, "CLASSIFICATION_TYPE": "U", "NORAD_CAT_ID": 34022, "ELEMENT_SET_NO": 999, "REV_AT_EPOCH": 88183, "BSTAR": 0.00039018, "MEAN_MOTION_DOT": 1.181e-05, "MEAN_MOTION_DDOT": 0}, "tle": {"line1": "1 34022U 93036HH  25345.89315786  .00001181  00000+0  39018-3 0  9992", "line2": "2 34022  74.0542 272.3546 0022689 337.4650  93.5745 14.38961600881838"}}, "geometry": {"type": "Point", "coordinates": [138.9348174795143, -68.85676035379745]}}, {"type": "Feature", "properties": {"norad_id": 34023, "name": "COSMOS 2251 DEB", "group": "cosmos-2251-debris", "lat": 5.574049739621447, "lon": 70.61268728807359, "alt_km": 771.5928012352024, "timestamp": "2025-12-12T11:38:31.806099+00:00", "meta": {"OBJECT_NAME": "COSMOS 2251 DEB", "OBJECT_ID": "1993-036HJ", "EPOCH": "2025-12-11T21:52:08.480064", "MEAN_MOTION": 14.40558554, "ECCENTRICITY": 0.0018444, "INCLINATION": 74.0251, "RA_OF_ASC_NODE": 253.2763, "ARG_OF_PERICENTER": 349.1276, "MEAN_ANOMALY": 90.0279, "EPHEMERIS_TYPE": 0, "CLASSIFICATION_TYPE": "U", "NORAD_CAT_ID": 34023, "ELEMENT_SET_NO": 999, "REV_AT_EPOCH": 88202, "BSTAR": 0.0005303, "MEAN_MOTION_DOT": 1.666e-05, "MEAN_MOTION_DDOT": 0}, "tle": {"line1": "1 34023U 93036HJ  25345.91120926  .00001666  00000+0  53030-3 0  9994", "line2": "2 34023  74.0251 253.2763 0018444 349.1276  90.0279 14.40558554882022"}}, "geometry": {"type": "Point", "coordinates": [70.61268728807359, 5.574049739621447]}}, {"type": "Feature", "properties": {"norad_id": 34024, "name": "COSMOS 2251 DEB", "group": "cosmos-2251-debris", "lat": -8.097772411984986, "lon": 138.79289313897104, "alt_km": 792.3747261852823, "timestamp": "2025-12-12T11:38:31.806110+00:00", "meta": {"OBJECT_NAME": "COSMOS 2251 DEB", "OBJECT_ID": "1993-036HK", "EPOCH": "2025-12-12T04:08:19.121856", "MEAN_MOTION": 14.35395438, "ECCENTRICITY": 0.0021002, "INCLINATION": 74.0464, "RA_OF_ASC_NODE": 317.0331, "ARG_OF_PERICENTER": 7.8761, "MEAN_ANOMALY": 5.5088, "EPHEMERIS_TYPE": 0, "CLASSIFICATION_TYPE": "U", "NORAD_CAT_ID": 34024, "ELEMENT_SET_NO": 999, "REV_AT_EPOCH": 88016, "BSTAR": 0.00031694, "MEAN_MOTION_DOT": 8.86e-06, "MEAN_MOTION_DDOT": 0}, "tle": {"line1": "1 34024U 93036HK  25346.17244354  .00000886  00000+0  31694-3 0  9991", "line2": "2 34024  74.0464 317.0331 0021002   7.8761   5.5088 14.35395438880166"}}, "geometry": {"type": "Point", "coordinates": [138.79289313897104, -8.097772411984986]}}, {"type": "Feature", "properties": {"norad_id": 34026, "name": "COSMOS 2251 DEB", "group": "cosmos-2251-debris", "lat": 42.47029047614093, "lon": 142.2429176889441, "alt_km": 926.5072000838136, "timestamp": "2025-12-12T11:38:31.806120+00:00", "meta": {"OBJECT_NAME": "COSMOS 2251 DEB", "OBJECT_ID": "1993-036HM", "EPOCH": "2025-12-12T00:42:27.527328", "MEAN_MOTION": 13.65307375, "ECCENTRICITY": 0.0350653, "INCLINATION": 73.767, "RA_OF_ASC_NODE": 338.4667, "ARG_OF_PERICENTER": 208.5868, "MEAN_ANOMALY": 211.9292, "EPHEMERIS_TYPE": 0, "CLASSIFICATION_TYPE": "U", "NORAD_CAT_ID": 34026, "ELEMENT_SET_NO": 999, "REV_AT_EPOCH": 83522, "BSTAR": 0.0010532, "MEAN_MOTION_DOT": 1.28e-05, "MEAN_MOTION_DDOT": 0}, "tle": {"line1": "1 34026U 93036HM  25346.02948527  .00001280  00000+0  10532-2 0  9996", "line2": "2 34026  73.7670 338.4667 0350653 208.5868 211.9292 13.65307375835229"}}, "geometry": {"type": "Point", "coordinates": [142.2429176889441, 42.47029047614093]}}, {"type": "Feature", "properties": {"norad_id": 34028, "name": "COSMOS 2251 DEB", "group": "cosmos-2251-debris", "lat": -21.242454295388363, "lon": 174.0939156928874, "alt_km": 1070.4214681542262, "timestamp": "2025-12-12T11:38:31.806132+00:00", "meta": {"OBJECT_NAME": "COSMOS 2251 DEB", "OBJECT_ID": "1993-036HP", "EPOCH": "2025-12-12T01:52:50.844000", "MEAN_MOTION": 13.2062192, "ECCENTRICITY": 0.054372, "INCLINATION": 73.8832, "RA_OF_ASC_NODE": 348.2642, "ARG_OF_PERICENTER": 126.2235, "MEAN_ANOMALY": 296.8575, "EPHEMERIS_TYPE": 0, "CLASSIFICATION_TYPE": "U", "NORAD_CAT_ID": 34028, "ELEMENT_SET_NO": 999, "REV_AT_EPOCH": 80999, "BSTAR": 0.00048546, "MEAN_MOTION_DOT": 4.12e-06, "MEAN_MOTION_DDOT": 0}, "tle": {"line1": "1 34028U 93036HP  25346.07836625  .00000412  00000+0  48546-3 0  9991", "line2": "2 34028  73.8832 348.2642 0543720 126.2235 296.8575 13.20621920809994"}}, "geometry": {"type": "Point", "coordinates": [174.0939156928874, -21.242454295388363]}}]}